ORBCOMM-X [-]           
1 21576U 91050C   24065.16784387  .00000424  00000+0  14138-3 0  9996
2 21576  98.4011 134.0320 0004287 149.3638 210.7803 14.42387073714488
ORBCOMM FM02 [-]        
1 23546U 95017B   24065.58513472  .00006664  00000+0  92360-3 0  9998
2 23546  69.9697 171.3339 0010206 296.0575  63.9522 14.78353480542627
ORBCOMM FM08 [-]        
1 25112U 97084A   24065.45521554  .00002055  00000+0  66228-3 0  9995
2 25112  45.0141  91.4003 0006297  25.9077 334.2087 14.42102816373626
ORBCOMM FM10 [-]        
1 25113U 97084B   24065.45840227  .00001912  00000+0  62015-3 0  9998
2 25113  45.0154  93.1924 0005190 348.3972  11.6757 14.42028878548774
ORBCOMM FM11 [+]        
1 25114U 97084C   24065.47170754  .00001996  00000+0  64691-3 0  9996
2 25114  45.0139  93.1454 0005929 351.5385   8.5364 14.41914829373741
ORBCOMM FM12 [-]        
1 25115U 97084D   24065.49924705  .00001866  00000+0  60798-3 0  9992
2 25115  45.0153  92.6880 0005009 348.8147  11.2591 14.41884887373540
ORBCOMM FM09 [-]        
1 25116U 97084E   24065.50903100  .00001866  00000+0  60832-3 0  9990
2 25116  45.0155  93.3093 0006556 340.2244  19.8351 14.41851806373755
